[
    {
        "OBJECT_NAME": "COSMOS 2219",
        "OBJECT_ID": "1992-076A",
        "EPOCH": "2026-05-02T10:09:41.537088",
        "MEAN_MOTION": 14.14100791,
        "ECCENTRICITY": 0.0016396,
        "INCLINATION": 71.0606,
        "RA_OF_ASC_NODE": 265.7373,
        "ARG_OF_PERICENTER": 121.4531,
        "MEAN_ANOMALY": 238.8197,
        "EPHEMERIS_TYPE": 0,
        "CLASSIFICATION_TYPE": "U",
        "NORAD_CAT_ID": 22219,
        "ELEMENT_SET_NO": 999,
        "REV_AT_EPOCH": 72597,
        "BSTAR": 0.00014781,
        "MEAN_MOTION_DOT": 2.35e-06,
        "MEAN_MOTION_DDOT": 0
    },
    {
        "OBJECT_NAME": "SL-16 R/B",
        "OBJECT_ID": "1992-076B",
        "EPOCH": "2026-05-02T07:10:33.053088",
        "MEAN_MOTION": 14.1686605,
        "ECCENTRICITY": 0.0012459,
        "INCLINATION": 70.9996,
        "RA_OF_ASC_NODE": 75.4451,
        "ARG_OF_PERICENTER": 3.2479,
        "MEAN_ANOMALY": 146.499,
        "EPHEMERIS_TYPE": 0,
        "CLASSIFICATION_TYPE": "U",
        "NORAD_CAT_ID": 22220,
        "ELEMENT_SET_NO": 999,
        "REV_AT_EPOCH": 72942,
        "BSTAR": 0.00011906,
        "MEAN_MOTION_DOT": 1.91e-06,
        "MEAN_MOTION_DDOT": 0
    },
    {
        "OBJECT_NAME": "COSMOS 2221",
        "OBJECT_ID": "1992-080A",
        "EPOCH": "2026-05-02T06:27:44.192736",
        "MEAN_MOTION": 14.96413687,
        "ECCENTRICITY": 0.0014481,
        "INCLINATION": 82.5052,
        "RA_OF_ASC_NODE": 227.7477,
        "ARG_OF_PERICENTER": 18.6577,
        "MEAN_ANOMALY": 341.5173,
        "EPHEMERIS_TYPE": 0,
        "CLASSIFICATION_TYPE": "U",
        "NORAD_CAT_ID": 22236,
        "ELEMENT_SET_NO": 999,
        "REV_AT_EPOCH": 78880,
        "BSTAR": 0.00016193,
        "MEAN_MOTION_DOT": 1.864e-05,
        "MEAN_MOTION_DDOT": 0
    },
    {
        "OBJECT_NAME": "SL-16 R/B",
        "OBJECT_ID": "1992-093B",
        "EPOCH": "2026-05-02T09:04:13.831104",
        "MEAN_MOTION": 14.15461376,
        "ECCENTRICITY": 0.0006077,
        "INCLINATION": 71.022,
        "RA_OF_ASC_NODE": 251.5557,
        "ARG_OF_PERICENTER": 240.2332,
        "MEAN_ANOMALY": 119.8187,
        "EPHEMERIS_TYPE": 0,
        "CLASSIFICATION_TYPE": "U",
        "NORAD_CAT_ID": 22285,
        "ELEMENT_SET_NO": 999,
        "REV_AT_EPOCH": 72075,
        "BSTAR": 7.6773e-05,
        "MEAN_MOTION_DOT": 1.02e-06,
        "MEAN_MOTION_DDOT": 0
    },
    {
        "OBJECT_NAME": "COSMOS 2228",
        "OBJECT_ID": "1992-094A",
        "EPOCH": "2026-05-02T10:47:57.884928",
        "MEAN_MOTION": 14.97435535,
        "ECCENTRICITY": 0.0019399,
        "INCLINATION": 82.5196,
        "RA_OF_ASC_NODE": 185.8443,
        "ARG_OF_PERICENTER": 119.2529,
        "MEAN_ANOMALY": 241.0637,
        "EPHEMERIS_TYPE": 0,
        "CLASSIFICATION_TYPE": "U",
        "NORAD_CAT_ID": 22286,
        "ELEMENT_SET_NO": 999,
        "REV_AT_EPOCH": 78410,
        "BSTAR": 0.00016251,
        "MEAN_MOTION_DOT": 1.924e-05,
        "MEAN_MOTION_DDOT": 0
    },
    {
        "OBJECT_NAME": "SL-16 R/B",
        "OBJECT_ID": "1993-016B",
        "EPOCH": "2026-05-02T08:28:29.940384",
        "MEAN_MOTION": 14.15307498,
        "ECCENTRICITY": 0.0012369,
        "INCLINATION": 71.0039,
        "RA_OF_ASC_NODE": 102.4733,
        "ARG_OF_PERICENTER": 246.2263,
        "MEAN_ANOMALY": 113.7563,
        "EPHEMERIS_TYPE": 0,
        "CLASSIFICATION_TYPE": "U",
        "NORAD_CAT_ID": 22566,
        "ELEMENT_SET_NO": 999,
        "REV_AT_EPOCH": 70976,
        "BSTAR": -3.0275e-05,
        "MEAN_MOTION_DOT": -1.07e-06,
        "MEAN_MOTION_DDOT": 0
    },
    {
        "OBJECT_NAME": "COSMOS 2242",
        "OBJECT_ID": "1993-024A",
        "EPOCH": "2026-05-02T06:07:34.675680",
        "MEAN_MOTION": 14.96769878,
        "ECCENTRICITY": 0.001767,
        "INCLINATION": 82.5211,
        "RA_OF_ASC_NODE": 215.4763,
        "ARG_OF_PERICENTER": 122.973,
        "MEAN_ANOMALY": 237.3194,
        "EPHEMERIS_TYPE": 0,
        "CLASSIFICATION_TYPE": "U",
        "NORAD_CAT_ID": 22626,
        "ELEMENT_SET_NO": 999,
        "REV_AT_EPOCH": 78840,
        "BSTAR": 0.00019361,
        "MEAN_MOTION_DOT": 2.247e-05,
        "MEAN_MOTION_DDOT": 0
    },
    {
        "OBJECT_NAME": "SL-16 R/B",
        "OBJECT_ID": "1993-059B",
        "EPOCH": "2026-05-02T09:37:09.043104",
        "MEAN_MOTION": 14.17241862,
        "ECCENTRICITY": 0.0015523,
        "INCLINATION": 70.9903,
        "RA_OF_ASC_NODE": 257.8569,
        "ARG_OF_PERICENTER": 133.5772,
        "MEAN_ANOMALY": 226.6643,
        "EPHEMERIS_TYPE": 0,
        "CLASSIFICATION_TYPE": "U",
        "NORAD_CAT_ID": 22803,
        "ELEMENT_SET_NO": 999,
        "REV_AT_EPOCH": 68714,
        "BSTAR": 0.00011088,
        "MEAN_MOTION_DOT": 1.76e-06,
        "MEAN_MOTION_DDOT": 0
    },
    {
        "OBJECT_NAME": "ARIANE 40 R/B",
        "OBJECT_ID": "1993-061H",
        "EPOCH": "2026-05-02T11:13:19.788960",
        "MEAN_MOTION": 14.328877,
        "ECCENTRICITY": 0.0011824,
        "INCLINATION": 98.4836,
        "RA_OF_ASC_NODE": 190.2696,
        "ARG_OF_PERICENTER": 122.389,
        "MEAN_ANOMALY": 237.844,
        "EPHEMERIS_TYPE": 0,
        "CLASSIFICATION_TYPE": "U",
        "NORAD_CAT_ID": 22830,
        "ELEMENT_SET_NO": 999,
        "REV_AT_EPOCH": 70180,
        "BSTAR": 8.9175e-05,
        "MEAN_MOTION_DOT": 2.01e-06,
        "MEAN_MOTION_DDOT": 0
    },
    {
        "OBJECT_NAME": "COSMOS 2278",
        "OBJECT_ID": "1994-023A",
        "EPOCH": "2026-05-02T06:38:42.401760",
        "MEAN_MOTION": 14.14389281,
        "ECCENTRICITY": 0.0010906,
        "INCLINATION": 71.055,
        "RA_OF_ASC_NODE": 62.9803,
        "ARG_OF_PERICENTER": 299.5644,
        "MEAN_ANOMALY": 60.4391,
        "EPHEMERIS_TYPE": 0,
        "CLASSIFICATION_TYPE": "U",
        "NORAD_CAT_ID": 23087,
        "ELEMENT_SET_NO": 999,
        "REV_AT_EPOCH": 65238,
        "BSTAR": 1.6599e-05,
        "MEAN_MOTION_DOT": -1.5e-07,
        "MEAN_MOTION_DDOT": 0
    },
    {
        "OBJECT_NAME": "SL-16 R/B",
        "OBJECT_ID": "1994-023B",
        "EPOCH": "2026-05-01T22:41:53.983680",
        "MEAN_MOTION": 14.15016824,
        "ECCENTRICITY": 0.0004885,
        "INCLINATION": 70.9996,
        "RA_OF_ASC_NODE": 319.0451,
        "ARG_OF_PERICENTER": 235.03,
        "MEAN_ANOMALY": 125.0364,
        "EPHEMERIS_TYPE": 0,
        "CLASSIFICATION_TYPE": "U",
        "NORAD_CAT_ID": 23088,
        "ELEMENT_SET_NO": 999,
        "REV_AT_EPOCH": 65362,
        "BSTAR": 0.00014825,
        "MEAN_MOTION_DOT": 2.39e-06,
        "MEAN_MOTION_DDOT": 0
    },
    {
        "OBJECT_NAME": "SL-16 R/B",
        "OBJECT_ID": "1994-074B",
        "EPOCH": "2026-05-02T02:09:31.413024",
        "MEAN_MOTION": 14.79462441,
        "ECCENTRICITY": 0.0007754,
        "INCLINATION": 97.7028,
        "RA_OF_ASC_NODE": 150.7246,
        "ARG_OF_PERICENTER": 55.5554,
        "MEAN_ANOMALY": 7.9525,
        "EPHEMERIS_TYPE": 0,
        "CLASSIFICATION_TYPE": "U",
        "NORAD_CAT_ID": 23343,
        "ELEMENT_SET_NO": 999,
        "REV_AT_EPOCH": 69514,
        "BSTAR": 6.3178e-05,
        "MEAN_MOTION_DOT": 4.23e-06,
        "MEAN_MOTION_DDOT": 0
    },
    {
        "OBJECT_NAME": "SL-16 R/B",
        "OBJECT_ID": "1994-077B",
        "EPOCH": "2026-05-02T09:37:46.151040",
        "MEAN_MOTION": 14.15572201,
        "ECCENTRICITY": 3.84e-05,
        "INCLINATION": 70.9835,
        "RA_OF_ASC_NODE": 239.486,
        "ARG_OF_PERICENTER": 32.5453,
        "MEAN_ANOMALY": 327.5693,
        "EPHEMERIS_TYPE": 0,
        "CLASSIFICATION_TYPE": "U",
        "NORAD_CAT_ID": 23405,
        "ELEMENT_SET_NO": 999,
        "REV_AT_EPOCH": 62383,
        "BSTAR": -7.8791e-05,
        "MEAN_MOTION_DOT": -2.02e-06,
        "MEAN_MOTION_DDOT": 0
    }
]