COSMOS 2219             
1 22219U 92076A   26122.42339742  .00000235  00000+0  14781-3 0  9990
2 22219  71.0606 265.7373 0016396 121.4531 238.8197 14.14100791725979
SL-16 R/B               
1 22220U 92076B   26122.29899367  .00000191  00000+0  11906-3 0  9998
2 22220  70.9996  75.4451 0012459   3.2479 146.4990 14.16866050729426
COSMOS 2221             
1 22236U 92080A   26122.26926149  .00001864  00000+0  16193-3 0  9997
2 22236  82.5052 227.7477 0014481  18.6577 341.5173 14.96413687788801
SL-16 R/B               
1 22285U 92093B   26122.37793786  .00000102  00000+0  76773-4 0  9991
2 22285  71.0220 251.5557 0006077 240.2332 119.8187 14.15461376720753
COSMOS 2228             
1 22286U 92094A   26122.44997552  .00001924  00000+0  16251-3 0  9995
2 22286  82.5196 185.8443 0019399 119.2529 241.0637 14.97435535784105
SL-16 R/B               
1 22566U 93016B   26122.35312431 -.00000107  00000+0 -30275-4 0  9995
2 22566  71.0039 102.4733 0012369 246.2263 113.7563 14.15307498709766
COSMOS 2242             
1 22626U 93024A   26122.25526245  .00002247  00000+0  19361-3 0  9997
2 22626  82.5211 215.4763 0017670 122.9730 237.3194 14.96769878788403
SL-16 R/B               
1 22803U 93059B   26122.40079911  .00000176  00000+0  11088-3 0  9999
2 22803  70.9903 257.8569 0015523 133.5772 226.6643 14.17241862687142
ARIANE 40 R/B           
1 22830U 93061H   26122.46759015  .00000201  00000+0  89175-4 0  9990
2 22830  98.4836 190.2696 0011824 122.3890 237.8440 14.32887700701803
COSMOS 2278             
1 23087U 94023A   26122.27687965 -.00000015  00000+0  16599-4 0  9991
2 23087  71.0550  62.9803 0010906 299.5644  60.4391 14.14389281652381
SL-16 R/B               
1 23088U 94023B   26121.94576370  .00000239  00000+0  14825-3 0  9998
2 23088  70.9996 319.0451 0004885 235.0300 125.0364 14.15016824653629
SL-16 R/B               
1 23343U 94074B   26122.08994691  .00000423  00000+0  63178-4 0  9995
2 23343  97.7028 150.7246 0007754  55.5554   7.9525 14.79462441695142
SL-16 R/B               
1 23405U 94077B   26122.40122860 -.00000202  00000+0 -78791-4 0  9998
2 23405  70.9835 239.4860 0000384  32.5453 327.5693 14.15572201623832
